NORAD_CAT_ID,OBJECT_NAME,OBJECT_TYPE,EPOCH,MEAN_MOTION,ECCENTRICITY,INCLINATION,RA_OF_ASC_NODE,ARG_OF_PERICENTER,MEAN_ANOMALY,BSTAR,MEAN_MOTION_DOT,MEAN_MOTION_DDOT,TLE_LINE0,TLE_LINE1,TLE_LINE2,SEMIMAJOR_AXIS,PERIOD,APOGEE,PERIGEE,DECAYED
56485.0,STARLINK-6210,PAYLOAD,2023-10-20 01:42:01,14.9833877,0.0002957,69.9991,161.9367,270.2404,89.8416,6.1984e-05,6.47e-06,0.0,0 STARLINK-6210,1 56485U 23064AP  23293.07084865  .00000647  00000-0  61984-4 0  9999,2 56485  69.9991 161.9367 0002957 270.2404  89.8416 14.98338770 25540,6950.166,96.106,574.086,569.976,0.0
56485.0,STARLINK-6210,PAYLOAD,2023-10-20 22:31:47,14.98321931,0.0002168,70.0012,159.7488,288.57,71.5223,-7.1019e-05,-9.4e-06,0.0,0 STARLINK-6210,1 56485U 23064AP  23293.93874820 -.00000940  00000-0 -71019-4 0  9990,2 56485  70.0012 159.7488 0002168 288.5700  71.5223 14.98321931 25311,6950.218,96.108,573.59,570.576,0.0
56485.0,STARLINK-6210,PAYLOAD,2023-10-21 01:44:03,14.98323483,0.0002733,69.9985,159.4119,275.2088,84.8759,-0.00011751,-1.495e-05,0.0,0 STARLINK-6210,1 56485U 23064AP  23294.07226635 -.00001495  00000-0 -11751-3 0  9993,2 56485  69.9985 159.4119 0002733 275.2088  84.8759 14.98323483 25691,6950.213,96.107,573.978,570.179,0.0
56485.0,STARLINK-6210,PAYLOAD,2023-10-21 08:08:35,14.98327038,0.0002754,69.9979,158.7398,270.1778,89.9066,-5.591e-05,-7.6e-06,0.0,0 STARLINK-6210,1 56485U 23064AP  23294.33930274 -.00000760  00000-0 -55910-4 0  9993,2 56485  69.9979 158.7398 0002754 270.1778  89.9066 14.98327038 25370,6950.202,96.107,573.981,570.153,0.0
56485.0,STARLINK-6210,PAYLOAD,2023-10-21 20:57:39,14.98385868,0.0003041,69.9981,157.391,265.8298,94.2514,-0.00071168,-8.587e-05,0.0,0 STARLINK-6210,1 56485U 23064AP  23294.87336826 -.00008587  00000-0 -71168-3 0  9992,2 56485  69.9981 157.3910 0003041 265.8298  94.2514 14.98385868 25457,6950.02,96.103,573.999,569.772,0.0
56485.0,STARLINK-6210,PAYLOAD,2023-10-22 01:46:03,14.98329463,0.000309,69.9987,156.8863,264.4757,95.605,-5.0782e-05,-6.99e-06,0.0,0 STARLINK-6210,1 56485U 23064AP  23295.07365629 -.00000699  00000-0 -50782-4 0  9994,2 56485  69.9987 156.8863 0003090 264.4757  95.6050 14.98329463 25845,6950.195,96.107,574.207,569.912,0.0
56485.0,STARLINK-6210,PAYLOAD,2023-10-22 08:10:34,14.98400619,0.000315,69.9993,156.2121,268.1076,91.9722,-0.0011807,-0.00014178,0.0,0 STARLINK-6210,1 56485U 23064AP  23295.34067727 -.00014178  00000-0 -11807-2 0  9992,2 56485  69.9993 156.2121 0003150 268.1076  91.9722 14.98400619 25887,6949.975,96.102,574.029,569.65,0.0
56485.0,STARLINK-6210,PAYLOAD,2023-10-22 22:35:50,14.98305951,0.0002344,69.999,154.6977,279.0377,81.0517,-2.2635e-05,-3.63e-06,0.0,0 STARLINK-6210,1 56485U 23064AP  23295.94155565 -.00000363  00000-0 -22635-4 0  9990,2 56485  69.9990 154.6977 0002344 279.0377  81.0517 14.98305951 25610,6950.267,96.109,573.761,570.503,0.0
56485.0,STARLINK-6210,PAYLOAD,2023-10-23 00:11:57,14.98316586,0.0002665,69.9988,154.5295,283.365,76.7211,0.00011651,1.297e-05,0.0,0 STARLINK-6210,1 56485U 23064AP  23296.00830603  .00001297  00000-0  11651-3 0  9991,2 56485  69.9988 154.5295 0002665 283.3650  76.7211 14.98316586 25985,6950.234,96.108,573.952,570.247,0.0
56485.0,STARLINK-6210,PAYLOAD,2023-10-23 19:25:34,14.98332969,0.0002469,69.9988,152.5098,271.5417,88.5459,-4.9011e-05,-6.78e-06,0.0,0 STARLINK-6210,1 56485U 23064AP  23296.80942211 -.00000678  00000-0 -49011-4 0  9994,2 56485  69.9988 152.5098 0002469 271.5417  88.5459 14.98332969 26109,6950.184,96.107,573.765,570.333,0.0
56485.0,STARLINK-6210,PAYLOAD,2023-10-23 21:01:41,14.9836417,0.0002482,69.9992,152.3412,270.8582,89.2292,-0.00052469,-6.353e-05,0.0,0 STARLINK-6210,1 56485U 23064AP  23296.87617810 -.00006353  00000-0 -52469-3 0  9991,2 56485  69.9992 152.3412 0002482 270.8582  89.2292 14.98364170 25754,6950.087,96.105,573.677,570.227,0.0
56485.0,STARLINK-6210,PAYLOAD,2023-10-24 08:14:38,14.98335824,0.0002363,69.999,151.1636,273.7027,86.3862,-7.2289e-05,-9.55e-06,0.0,0 STARLINK-6210,1 56485U 23064AP  23297.34350018 -.00000955  00000-0 -72289-4 0  9993,2 56485  69.9990 151.1636 0002363 273.7027  86.3862 14.98335824 25824,6950.175,96.107,573.682,570.398,0.0
56485.0,STARLINK-6210,PAYLOAD,2023-10-25 14:41:11,14.98330557,0.0002818,69.9985,147.9655,268.456,91.6276,4.5821e-05,4.54e-06,0.0,0 STARLINK-6210,1 56485U 23064AP  23298.61193757  .00000454  00000-0  45821-4 0  9993,2 56485  69.9985 147.9655 0002818 268.4560  91.6276 14.98330557 26377,6950.191,96.107,574.015,570.098,0.0
56485.0,STARLINK-6210,PAYLOAD,2023-10-25 22:41:51,14.98341013,0.0002892,69.9981,147.1236,274.2627,85.8201,-0.00013556,-1.711e-05,0.0,0 STARLINK-6210,1 56485U 23064AP  23298.94573637 -.00001711  00000-0 -13556-3 0  9996,2 56485  69.9981 147.1236 0002892 274.2627  85.8201 14.98341013 26069,6950.159,96.106,574.034,570.014,0.0
56485.0,STARLINK-6210,PAYLOAD,2023-10-26 00:17:59,14.98334159,0.0002811,69.998,146.9551,270.716,89.3677,-4.4849e-06,-1.47e-06,0.0,0 STARLINK-6210,1 56485U 23064AP  23299.01249623 -.00000147  00000-0 -44849-5 0  9993,2 56485  69.9980 146.9551 0002811 270.7160  89.3677 14.98334159 26079,6950.18,96.107,573.999,570.091,0.0
56485.0,STARLINK-6210,PAYLOAD,2023-10-26 22:43:54,14.98313394,0.0003164,69.9973,144.5975,270.1415,89.9382,-0.00036619,-4.458e-05,0.0,0 STARLINK-6210,1 56485U 23064AP  23299.94715313 -.00004458  00000-0 -36619-3 0  9992,2 56485  69.9973 144.5975 0003164 270.1415  89.9382 14.98313394 26217,6950.244,96.108,574.308,569.91,0.0
56485.0,STARLINK-6210,PAYLOAD,2023-10-27 00:20:00,14.98340896,0.0002805,69.9978,144.4299,268.6582,91.4255,-7.7933e-05,-1.023e-05,0.0,0 STARLINK-6210,1 56485U 23064AP  23300.01389068 -.00001023  00000-0 -77933-4 0  9997,2 56485  69.9978 144.4299 0002805 268.6582  91.4255 14.98340896 26582,6950.159,96.106,573.974,570.075,0.0
56485.0,STARLINK-6210,PAYLOAD,2023-10-27 13:09:04,14.98332133,0.0002679,69.9982,143.083,274.5775,85.5078,-1.1437e-05,-2.29e-06,0.0,0 STARLINK-6210,1 56485U 23064AP  23300.54797353 -.00000229  00000-0 -11437-4 0  9999,2 56485  69.9982 143.0830 0002679 274.5775  85.5078 14.98332133 26663,6950.186,96.107,573.913,570.189,0.0
56485.0,STARLINK-6210,PAYLOAD,2023-10-27 21:09:45,14.98330472,0.0002702,69.9981,142.2412,274.8036,85.2815,-2.6963e-05,-4.15e-06,0.0,0 STARLINK-6210,1 56485U 23064AP  23300.88177442 -.00000415  00000-0 -26963-4 0  9994,2 56485  69.9981 142.2412 0002702 274.8036  85.2815 14.98330472 26355,6950.191,96.107,573.934,570.178,0.0
56485.0,STARLINK-6210,PAYLOAD,2023-10-28 00:22:00,14.98336302,0.0003158,69.9976,141.9046,276.7921,83.2878,4.6341e-05,4.6e-06,0.0,0 STARLINK-6210,1 56485U 23064AP  23301.01528826  .00000460  00000-0  46341-4 0  9996,2 56485  69.9976 141.9046 0003158 276.7921  83.2878 14.98336302 26375,6950.173,96.107,574.233,569.844,0.0
56485.0,STARLINK-6210,PAYLOAD,2023-10-28 19:35:37,14.98333902,0.0002895,69.9972,139.8855,267.4867,92.5961,-2.3009e-07,-9.6e-07,0.0,0 STARLINK-6210,1 56485U 23064AP  23301.81641199 -.00000096  00000-0 -23009-6 0  9998,2 56485  69.9972 139.8855 0002895 267.4867  92.5961 14.98333902 26850,6950.181,96.107,574.058,570.034,0.0
56485.0,STARLINK-6210,PAYLOAD,2023-10-28 21:11:46,14.98329217,0.000288,69.9971,139.7168,268.1774,91.9055,-5.9094e-05,-7.98e-06,0.0,0 STARLINK-6210,1 56485U 23064AP  23301.88317571 -.00000798  00000-0 -59094-4 0  9999,2 56485  69.9971 139.7168 0002880 268.1774  91.9055 14.98329217 26507,6950.195,96.107,574.062,570.059,0.0
56485.0,STARLINK-6210,PAYLOAD,2023-10-29 13:13:06,14.98326564,0.0003031,69.9978,138.0335,273.8227,86.2585,3.9877e-05,3.83e-06,0.0,0 STARLINK-6210,1 56485U 23064AP  23302.55077433  .00000383  00000-0  39877-4 0  9999,2 56485  69.9978 138.0335 0003031 273.8227  86.2585 14.98326564 26605,6950.204,96.107,574.175,569.962,0.0
56485.0,STARLINK-6210,PAYLOAD,2023-10-29 21:13:47,14.98323529,0.0002573,69.9981,137.1919,265.0467,95.0398,0.00012944,1.452e-05,0.0,0 STARLINK-6210,1 56485U 23064AP  23302.88457399  .00001452  00000-0  12944-3 0  9991,2 56485  69.9981 137.1919 0002573 265.0467  95.0398 14.98323529 27010,6950.213,96.107,573.866,570.29,0.0
56485.0,STARLINK-6210,PAYLOAD,2023-10-30 19:39:41,14.982571,0.0003264,69.9985,134.8359,261.639,98.4399,0.001153,0.00013666,0.0,0 STARLINK-6210,1 56485U 23064AP  23303.81922693  .00013666  00000-0  11530-2 0  9998,2 56485  69.9985 134.8359 0003264 261.6390  98.4399 14.98257100 27155,6950.418,96.112,574.552,570.015,0.0
56485.0,STARLINK-6210,PAYLOAD,2023-10-30 21:15:48,14.98317859,0.0003688,69.9981,134.6675,264.0813,95.9926,0.00015793,1.791e-05,0.0,0 STARLINK-6210,1 56485U 23064AP  23303.88597722  .00001791  00000-0  15793-3 0  9998,2 56485  69.9981 134.6675 0003688 264.0813  95.9926 14.98317859 26804,6950.23,96.108,574.659,569.532,0.0
56485.0,STARLINK-6210,PAYLOAD,2023-10-31 13:17:08,14.98332639,0.000284,69.998,132.9842,271.6512,88.4322,-2.3017e-05,-3.68e-06,0.0,0 STARLINK-6210,1 56485U 23064AP  23304.55357357 -.00000368  00000-0 -23017-4 0  9991,2 56485  69.9980 132.9842 0002840 271.6512  88.4322 14.98332639 27260,6950.185,96.107,574.024,570.076,0.0
56485.0,STARLINK-6210,PAYLOAD,2023-10-31 14:53:16,14.98332402,0.0002866,69.9982,132.8159,272.7069,87.3761,-2.8667e-05,-4.35e-06,0.0,0 STARLINK-6210,1 56485U 23064AP  23304.62033378 -.00000435  00000-0 -28667-4 0  9994,2 56485  69.9982 132.8159 0002866 272.7069  87.3761 14.98332402 26913,6950.185,96.107,574.042,570.059,0.0
56485.0,STARLINK-6210,PAYLOAD,2023-10-31 21:17:48,14.98333458,0.0002822,69.9987,132.1426,271.7852,88.2984,1.8707e-05,1.3e-06,0.0,0 STARLINK-6210,1 56485U 23064AP  23304.88737119  .00000130  00000-0  18707-4 0  9990,2 56485  69.9987 132.1426 0002822 271.7852  88.2984 14.98333458 26952,6950.182,96.107,574.009,570.086,0.0
56485.0,STARLINK-6210,PAYLOAD,2023-11-01 13:19:09,14.98329679,0.000282,69.9989,130.4594,271.7358,88.3478,4.4723e-05,4.41e-06,0.0,0 STARLINK-6210,1 56485U 23064AP  23305.55497159  .00000441  00000-0  44723-4 0  9994,2 56485  69.9989 130.4594 0002820 271.7358  88.3478 14.98329679 27411,6950.194,96.107,574.019,570.099,0.0
